HAWK-10C                
1 60575U 24149DM  26068.80000012  .00002841  00000+0  25720-3 0  9999
2 60575  97.6791 145.3128 0003886  47.6078 312.5472 14.96177491 85124
LEMUR-2-LIA-MARTIN      
1 63248U 25052AQ  26068.70341042  .00006911  00000+0  60828-3 0  9993
2 63248  97.6996 322.6614 0003817 139.7155 220.4350 14.96805944 53795
